SKYKRAFT-1A             
1 55054U 23001AX  26068.71064616  .00008177  00000+0  30069-3 0  9991
2 55054  97.3349 127.6290 0011277 121.5092 238.7251 15.28083228176529
STARLINK-31539          
1 59539U 24074F   26068.16809474 -.00000464  00000+0 -73437-5 0  9993
2 59539  43.0066 346.5499 0001127 353.7108   6.3729 15.27566314105935
